[{"OBJECT_NAME":"STARLINK-32035","OBJECT_ID":"2024-117S","EPOCH":"2025-09-12T10:07:26.112000","MEAN_MOTION":15.30186255,"ECCENTRICITY":0.00012357,"INCLINATION":53.1599,"RA_OF_ASC_NODE":145.1049,"ARG_OF_PERICENTER":80.1427,"MEAN_ANOMALY":279.9713,"EPHEMERIS_TYPE":0,"CLASSIFICATION_TYPE":"U","NORAD_CAT_ID":60107,"ELEMENT_SET_NO":999,"REV_AT_EPOCH":6959,"BSTAR":-4.767582e-6,"MEAN_MOTION_DOT":-5.0e-6,"MEAN_MOTION_DDOT":0},{"OBJECT_NAME":"STARLINK-32042","OBJECT_ID":"2024-117T","EPOCH":"2025-09-12T14:35:55.211424","MEAN_MOTION":15.30194894,"ECCENTRICITY":0.00016859,"INCLINATION":53.1572,"RA_OF_ASC_NODE":144.1332,"ARG_OF_PERICENTER":63.9688,"MEAN_ANOMALY":296.1487,"EPHEMERIS_TYPE":0,"CLASSIFICATION_TYPE":"U","NORAD_CAT_ID":60108,"ELEMENT_SET_NO":999,"REV_AT_EPOCH":6962,"BSTAR":-7.7236003e-5,"MEAN_MOTION_DOT":-2.646e-5,"MEAN_MOTION_DDOT":0},{"OBJECT_NAME":"STARLINK-32040","OBJECT_ID":"2024-117U","EPOCH":"2025-09-12T09:43:51.382848","MEAN_MOTION":15.31569074,"ECCENTRICITY":0.00016138,"INCLINATION":53.1581,"RA_OF_ASC_NODE":144.9994,"ARG_OF_PERICENTER":92.138,"MEAN_ANOMALY":267.9806,"EPHEMERIS_TYPE":0,"CLASSIFICATION_TYPE":"U","NORAD_CAT_ID":60109,"ELEMENT_SET_NO":999,"REV_AT_EPOCH":6959,"BSTAR":4.0962511e-5,"MEAN_MOTION_DOT":9.01e-6,"MEAN_MOTION_DDOT":0},{"OBJECT_NAME":"STARLINK-32001","OBJECT_ID":"2024-117V","EPOCH":"2025-09-12T09:40:04.801440","MEAN_MOTION":15.30189667,"ECCENTRICITY":0.00012405,"INCLINATION":53.1607,"RA_OF_ASC_NODE":144.9821,"ARG_OF_PERICENTER":92.7795,"MEAN_ANOMALY":267.3348,"EPHEMERIS_TYPE":0,"CLASSIFICATION_TYPE":"U","NORAD_CAT_ID":60110,"ELEMENT_SET_NO":999,"REV_AT_EPOCH":6959,"BSTAR":-7.836219e-6,"MEAN_MOTION_DOT":-5.91e-6,"MEAN_MOTION_DDOT":0},{"OBJECT_NAME":"STARLINK-32015","OBJECT_ID":"2024-117W","EPOCH":"2025-09-12T09:30:59.044608","MEAN_MOTION":15.30177313,"ECCENTRICITY":0.00013241,"INCLINATION":53.1607,"RA_OF_ASC_NODE":144.9409,"ARG_OF_PERICENTER":81.637,"MEAN_ANOMALY":278.4781,"EPHEMERIS_TYPE":0,"CLASSIFICATION_TYPE":"U","NORAD_CAT_ID":60111,"ELEMENT_SET_NO":999,"REV_AT_EPOCH":6959,"BSTAR":-6.6470054e-5,"MEAN_MOTION_DOT":-2.326e-5,"MEAN_MOTION_DDOT":0},{"OBJECT_NAME":"STARLINK-32024","OBJECT_ID":"2024-117X","EPOCH":"2025-09-12T14:31:21.592992","MEAN_MOTION":15.30168367,"ECCENTRICITY":8.138e-5,"INCLINATION":53.16,"RA_OF_ASC_NODE":144.1137,"ARG_OF_PERICENTER":101.9125,"MEAN_ANOMALY":258.1967,"EPHEMERIS_TYPE":0,"CLASSIFICATION_TYPE":"U","NORAD_CAT_ID":60112,"ELEMENT_SET_NO":999,"REV_AT_EPOCH":6962,"BSTAR":0.00013958054,"MEAN_MOTION_DOT":3.773e-5,"MEAN_MOTION_DDOT":0},{"OBJECT_NAME":"STARLINK-11201 [DTC]","OBJECT_ID":"2024-118A","EPOCH":"2025-09-11T14:48:48.242592","MEAN_MOTION":15.6971048,"ECCENTRICITY":0.00010553,"INCLINATION":53.1593,"RA_OF_ASC_NODE":24.3431,"ARG_OF_PERICENTER":70.688,"MEAN_ANOMALY":289.4252,"EPHEMERIS_TYPE":0,"CLASSIFICATION_TYPE":"U","NORAD_CAT_ID":60113,"ELEMENT_SET_NO":999,"REV_AT_EPOCH":6986,"BSTAR":1.5257302e-5,"MEAN_MOTION_DOT":1.26e-5,"MEAN_MOTION_DDOT":0},{"OBJECT_NAME":"STARLINK-11198 [DTC]","OBJECT_ID":"2024-118B","EPOCH":"2025-09-12T15:08:41.887104","MEAN_MOTION":15.69699962,"ECCENTRICITY":0.00012619,"INCLINATION":53.16,"RA_OF_ASC_NODE":19.2885,"ARG_OF_PERICENTER":81.177,"MEAN_ANOMALY":278.9391,"EPHEMERIS_TYPE":0,"CLASSIFICATION_TYPE":"U","NORAD_CAT_ID":60114,"ELEMENT_SET_NO":999,"REV_AT_EPOCH":7002,"BSTAR":-9.301518e-6,"MEAN_MOTION_DOT":-1.715e-5,"MEAN_MOTION_DDOT":0},{"OBJECT_NAME":"STARLINK-11112 [DTC]","OBJECT_ID":"2024-118C","EPOCH":"2025-09-12T15:01:37.346016","MEAN_MOTION":15.69723106,"ECCENTRICITY":0.0001168,"INCLINATION":53.1586,"RA_OF_ASC_NODE":19.2562,"ARG_OF_PERICENTER":108.4586,"MEAN_ANOMALY":251.6559,"EPHEMERIS_TYPE":0,"CLASSIFICATION_TYPE":"U","NORAD_CAT_ID":60115,"ELEMENT_SET_NO":999,"REV_AT_EPOCH":7002,"BSTAR":-2.6412002e-5,"MEAN_MOTION_DOT":-3.789e-5,"MEAN_MOTION_DDOT":0},{"OBJECT_NAME":"STARLINK-11210 [DTC]","OBJECT_ID":"2024-118D","EPOCH":"2025-09-12T14:54:33.926400","MEAN_MOTION":15.69703219,"ECCENTRICITY":7.593e-5,"INCLINATION":53.1585,"RA_OF_ASC_NODE":19.2229,"ARG_OF_PERICENTER":74.6816,"MEAN_ANOMALY":285.4286,"EPHEMERIS_TYPE":0,"CLASSIFICATION_TYPE":"U","NORAD_CAT_ID":60116,"ELEMENT_SET_NO":999,"REV_AT_EPOCH":7002,"BSTAR":-1.0297981e-5,"MEAN_MOTION_DOT":-1.835e-5,"MEAN_MOTION_DDOT":0},{"OBJECT_NAME":"STARLINK-11203 [DTC]","OBJECT_ID":"2024-118E","EPOCH":"2025-09-12T14:47:30.142176","MEAN_MOTION":15.69700877,"ECCENTRICITY":0.0001159,"INCLINATION":53.1599,"RA_OF_ASC_NODE":19.1915,"ARG_OF_PERICENTER":88.2418,"MEAN_ANOMALY":271.8733,"EPHEMERIS_TYPE":0,"CLASSIFICATION_TYPE":"U","NORAD_CAT_ID":60117,"ELEMENT_SET_NO":999,"REV_AT_EPOCH":7002,"BSTAR":-7.742499e-6,"MEAN_MOTION_DOT":-1.526e-5,"MEAN_MOTION_DDOT":0},{"OBJECT_NAME":"STARLINK-11177 [DTC]","OBJECT_ID":"2024-118F","EPOCH":"2025-09-12T14:40:26.324256","MEAN_MOTION":15.69702187,"ECCENTRICITY":9.813e-5,"INCLINATION":53.1591,"RA_OF_ASC_NODE":19.1589,"ARG_OF_PERICENTER":78.8887,"MEAN_ANOMALY":281.2241,"EPHEMERIS_TYPE":0,"CLASSIFICATION_TYPE":"U","NORAD_CAT_ID":60118,"ELEMENT_SET_NO":999,"REV_AT_EPOCH":7002,"BSTAR":-9.690006e-6,"MEAN_MOTION_DOT":-1.762e-5,"MEAN_MOTION_DDOT":0},{"OBJECT_NAME":"STARLINK-11127 [DTC]","OBJECT_ID":"2024-118G","EPOCH":"2025-09-11T15:38:06.570816","MEAN_MOTION":15.69719513,"ECCENTRICITY":8.541e-5,"INCLINATION":53.1579,"RA_OF_ASC_NODE":23.8323,"ARG_OF_PERICENTER":82.4229,"MEAN_ANOMALY":277.6886,"EPHEMERIS_TYPE":0,"CLASSIFICATION_TYPE":"U","NORAD_CAT_ID":60119,"ELEMENT_SET_NO":999,"REV_AT_EPOCH":6987,"BSTAR":6.9590373e-5,"MEAN_MOTION_DOT":7.854e-5,"MEAN_MOTION_DDOT":0},{"OBJECT_NAME":"STARLINK-11164 [DTC]","OBJECT_ID":"2024-118H","EPOCH":"2025-09-11T15:31:02.236224","MEAN_MOTION":15.69708721,"ECCENTRICITY":5.445e-5,"INCLINATION":53.1594,"RA_OF_ASC_NODE":23.7985,"ARG_OF_PERICENTER":73.8694,"MEAN_ANOMALY":286.2384,"EPHEMERIS_TYPE":0,"CLASSIFICATION_TYPE":"U","NORAD_CAT_ID":60120,"ELEMENT_SET_NO":999,"REV_AT_EPOCH":6987,"BSTAR":1.9914676e-5,"MEAN_MOTION_DOT":1.825e-5,"MEAN_MOTION_DDOT":0},{"OBJECT_NAME":"STARLINK-11119 [DTC]","OBJECT_ID":"2024-118J","EPOCH":"2025-09-11T15:09:50.875776","MEAN_MOTION":15.69713846,"ECCENTRICITY":0.00011577,"INCLINATION":53.1588,"RA_OF_ASC_NODE":23.7032,"ARG_OF_PERICENTER":87.0226,"MEAN_ANOMALY":273.0925,"EPHEMERIS_TYPE":0,"CLASSIFICATION_TYPE":"U","NORAD_CAT_ID":60121,"ELEMENT_SET_NO":999,"REV_AT_EPOCH":6987,"BSTAR":9.051653e-6,"MEAN_MOTION_DOT":5.08e-6,"MEAN_MOTION_DDOT":0},{"OBJECT_NAME":"STARLINK-11157 [DTC]","OBJECT_ID":"2024-118K","EPOCH":"2025-09-11T15:16:54.802560","MEAN_MOTION":15.69704956,"ECCENTRICITY":6.143e-5,"INCLINATION":53.1603,"RA_OF_ASC_NODE":23.7355,"ARG_OF_PERICENTER":82.7828,"MEAN_ANOMALY":277.326,"EPHEMERIS_TYPE":0,"CLASSIFICATION_TYPE":"U","NORAD_CAT_ID":60122,"ELEMENT_SET_NO":999,"REV_AT_EPOCH":6987,"BSTAR":3.5018291e-5,"MEAN_MOTION_DOT":3.655e-5,"MEAN_MOTION_DDOT":0}]
