STARLINK-32035          
1 60107U 24117S   25255.42183000 -.00000500  00000+0 -47676-5 0  9997
2 60107  53.1599 145.1049 0001235  80.1427 279.9713 15.30186255 69598
STARLINK-32042          
1 60108U 24117T   25255.60827791 -.00002646  00000+0 -77236-4 0  9997
2 60108  53.1572 144.1332 0001685  63.9688 296.1487 15.30194894 69622
STARLINK-32040          
1 60109U 24117U   25255.40545582  .00000901  00000+0  40963-4 0  9998
2 60109  53.1581 144.9994 0001613  92.1380 267.9806 15.31569074 69593
STARLINK-32001          
1 60110U 24117V   25255.40283335 -.00000591  00000+0 -78362-5 0  9997
2 60110  53.1607 144.9821 0001240  92.7795 267.3348 15.30189667 69595
STARLINK-32015          
1 60111U 24117W   25255.39651672 -.00002326  00000+0 -66470-4 0  9993
2 60111  53.1607 144.9409 0001324  81.6370 278.4781 15.30177313 69596
STARLINK-32024          
1 60112U 24117X   25255.60511103  .00003773  00000+0  13958-3 0  9999
2 60112  53.1600 144.1137 0000813 101.9125 258.1967 15.30168367 69620
STARLINK-11201 [DTC]    
1 60113U 24118A   25254.61722503  .00001260  00000+0  15257-4 0  9993
2 60113  53.1593  24.3431 0001055  70.6880 289.4252 15.69710480 69868
STARLINK-11198 [DTC]    
1 60114U 24118B   25255.63104036 -.00001715  00000+0 -93015-5 0  9998
2 60114  53.1600  19.2885 0001261  81.1770 278.9391 15.69699962 70026
STARLINK-11112 [DTC]    
1 60115U 24118C   25255.62612669 -.00003789  00000+0 -26412-4 0  9993
2 60115  53.1586  19.2562 0001168 108.4586 251.6559 15.69723106 70028
STARLINK-11210 [DTC]    
1 60116U 24118D   25255.62122600 -.00001835  00000+0 -10298-4 0  9990
2 60116  53.1585  19.2229 0000759  74.6816 285.4286 15.69703219 70028
STARLINK-11203 [DTC]    
1 60117U 24118E   25255.61632109 -.00001526  00000+0 -77425-5 0  9993
2 60117  53.1599  19.1915 0001159  88.2418 271.8733 15.69700877 70022
STARLINK-11177 [DTC]    
1 60118U 24118F   25255.61141579 -.00001762  00000+0 -96900-5 0  9991
2 60118  53.1591  19.1589 0000981  78.8887 281.2241 15.69702187 70024
STARLINK-11127 [DTC]    
1 60119U 24118G   25254.65146494  .00007854  00000+0  69590-4 0  9996
2 60119  53.1579  23.8323 0000854  82.4229 277.6886 15.69719513 69875
STARLINK-11164 [DTC]    
1 60120U 24118H   25254.64655366  .00001825  00000+0  19915-4 0  9998
2 60120  53.1594  23.7985 0000544  73.8694 286.2384 15.69708721 69871
STARLINK-11119 [DTC]    
1 60121U 24118J   25254.63183884  .00000508  00000+0  90517-5 0  9994
2 60121  53.1588  23.7032 0001157  87.0226 273.0925 15.69713846 69876
STARLINK-11157 [DTC]    
1 60122U 24118K   25254.63674540  .00003655  00000+0  35018-4 0  9999
2 60122  53.1603  23.7355 0000614  82.7828 277.3260 15.69704956 69871
